<?xml version="1.0" encoding="UTF-8"?>
<kml xmlns="http://www.opengis.net/kml/2.2" xmlns:gx="http://www.google.com/kml/ext/2.2" xmlns:kml="http://www.opengis.net/kml/2.2" xmlns:atom="http://www.w3.org/2005/Atom">
<Document>
	<name>October 2018-EF02.kml</name>
	<Style id="sh_wht-blank27">
		<IconStyle>
			<color>ffff0000</color>
			<scale>1.3</scale>
			<Icon>
				<href>http://maps.google.com/mapfiles/kml/paddle/wht-blank.png</href>
			</Icon>
			<hotSpot x="32" y="1" xunits="pixels" yunits="pixels"/>
		</IconStyle>
		<ListStyle>
			<ItemIcon>
				<href>http://maps.google.com/mapfiles/kml/paddle/wht-blank-lv.png</href>
			</ItemIcon>
		</ListStyle>
	</Style>
	<StyleMap id="msn_wht-blank27">
		<Pair>
			<key>normal</key>
			<styleUrl>#sn_wht-blank360</styleUrl>
		</Pair>
		<Pair>
			<key>highlight</key>
			<styleUrl>#sh_wht-blank27</styleUrl>
		</Pair>
	</StyleMap>
	<Style id="sn_wht-blank360">
		<IconStyle>
			<color>ffff0000</color>
			<scale>1.1</scale>
			<Icon>
				<href>http://maps.google.com/mapfiles/kml/paddle/wht-blank.png</href>
			</Icon>
			<hotSpot x="32" y="1" xunits="pixels" yunits="pixels"/>
		</IconStyle>
		<ListStyle>
			<ItemIcon>
				<href>http://maps.google.com/mapfiles/kml/paddle/wht-blank-lv.png</href>
			</ItemIcon>
		</ListStyle>
	</Style>
	<Folder>
		<name>October 2018</name>
		<open>1</open>
		<Placemark>
			<name>Oct18</name>
			<LookAt>
				<longitude>-73.80941233772866</longitude>
				<latitude>42.11655272707883</latitude>
				<altitude>0</altitude>
				<heading>0.0007341625387223406</heading>
				<tilt>30.00086486439954</tilt>
				<range>192.3841166442329</range>
				<gx:altitudeMode>relativeToSeaFloor</gx:altitudeMode>
			</LookAt>
			<styleUrl>#msn_wht-blank27</styleUrl>
			<Point>
				<gx:drawOrder>1</gx:drawOrder>
				<coordinates>-73.81026620169895,42.11675746641484,0</coordinates>
			</Point>
		</Placemark>
		<Placemark>
			<name>Oct18</name>
			<LookAt>
				<longitude>-73.80941233772866</longitude>
				<latitude>42.11655272707883</latitude>
				<altitude>0</altitude>
				<heading>0.0007341625387223406</heading>
				<tilt>30.00086486439954</tilt>
				<range>192.3841166442329</range>
				<gx:altitudeMode>relativeToSeaFloor</gx:altitudeMode>
			</LookAt>
			<styleUrl>#msn_wht-blank27</styleUrl>
			<Point>
				<gx:drawOrder>1</gx:drawOrder>
				<coordinates>-73.80857513374136,42.11674369818966,0</coordinates>
			</Point>
		</Placemark>
		<Placemark>
			<name>Oct18</name>
			<LookAt>
				<longitude>-73.80934040075927</longitude>
				<latitude>42.11596448155816</latitude>
				<altitude>0</altitude>
				<heading>0.0007824048527968554</heading>
				<tilt>30.00086486439951</tilt>
				<range>192.384116645076</range>
				<gx:altitudeMode>relativeToSeaFloor</gx:altitudeMode>
			</LookAt>
			<styleUrl>#msn_wht-blank27</styleUrl>
			<Point>
				<gx:drawOrder>1</gx:drawOrder>
				<coordinates>-73.80944289032027,42.11565880666869,0</coordinates>
			</Point>
		</Placemark>
	</Folder>
</Document>
</kml>
