<?xml version="1.0" encoding="UTF-8"?>
<kml xmlns="http://www.opengis.net/kml/2.2" xmlns:gx="http://www.google.com/kml/ext/2.2" xmlns:kml="http://www.opengis.net/kml/2.2" xmlns:atom="http://www.w3.org/2005/Atom">
<Document>
	<name>November EddyFlux Biomass.kml</name>
	<Style id="sh_wht-blank23">
		<IconStyle>
			<color>ffff00aa</color>
			<scale>1.3</scale>
			<Icon>
				<href>http://maps.google.com/mapfiles/kml/paddle/wht-blank.png</href>
			</Icon>
			<hotSpot x="32" y="1" xunits="pixels" yunits="pixels"/>
		</IconStyle>
		<ListStyle>
			<ItemIcon>
				<href>http://maps.google.com/mapfiles/kml/paddle/wht-blank-lv.png</href>
			</ItemIcon>
		</ListStyle>
	</Style>
	<Style id="sn_wht-blank2100">
		<IconStyle>
			<color>ffff00aa</color>
			<scale>1.1</scale>
			<Icon>
				<href>http://maps.google.com/mapfiles/kml/paddle/wht-blank.png</href>
			</Icon>
			<hotSpot x="32" y="1" xunits="pixels" yunits="pixels"/>
		</IconStyle>
		<ListStyle>
			<ItemIcon>
				<href>http://maps.google.com/mapfiles/kml/paddle/wht-blank-lv.png</href>
			</ItemIcon>
		</ListStyle>
	</Style>
	<StyleMap id="msn_wht-blank25">
		<Pair>
			<key>normal</key>
			<styleUrl>#sn_wht-blank2100</styleUrl>
		</Pair>
		<Pair>
			<key>highlight</key>
			<styleUrl>#sh_wht-blank90</styleUrl>
		</Pair>
	</StyleMap>
	<Style id="s_ylw-pushpin">
		<IconStyle>
			<color>ffff00aa</color>
			<scale>1.1</scale>
			<Icon>
				<href>http://maps.google.com/mapfiles/kml/paddle/wht-blank.png</href>
			</Icon>
			<hotSpot x="32" y="1" xunits="pixels" yunits="pixels"/>
		</IconStyle>
		<ListStyle>
			<ItemIcon>
				<href>http://maps.google.com/mapfiles/kml/paddle/wht-blank-lv.png</href>
			</ItemIcon>
		</ListStyle>
	</Style>
	<StyleMap id="msn_wht-blank21">
		<Pair>
			<key>normal</key>
			<styleUrl>#sn_wht-blank300</styleUrl>
		</Pair>
		<Pair>
			<key>highlight</key>
			<styleUrl>#sh_wht-blank23</styleUrl>
		</Pair>
	</StyleMap>
	<StyleMap id="m_ylw-pushpin">
		<Pair>
			<key>normal</key>
			<styleUrl>#s_ylw-pushpin</styleUrl>
		</Pair>
		<Pair>
			<key>highlight</key>
			<styleUrl>#s_ylw-pushpin_hl</styleUrl>
		</Pair>
	</StyleMap>
	<Style id="sh_wht-blank90">
		<IconStyle>
			<color>ffff00aa</color>
			<scale>1.3</scale>
			<Icon>
				<href>http://maps.google.com/mapfiles/kml/paddle/wht-blank.png</href>
			</Icon>
			<hotSpot x="32" y="1" xunits="pixels" yunits="pixels"/>
		</IconStyle>
		<ListStyle>
			<ItemIcon>
				<href>http://maps.google.com/mapfiles/kml/paddle/wht-blank-lv.png</href>
			</ItemIcon>
		</ListStyle>
	</Style>
	<Style id="s_ylw-pushpin_hl">
		<IconStyle>
			<color>ffff00aa</color>
			<scale>1.3</scale>
			<Icon>
				<href>http://maps.google.com/mapfiles/kml/paddle/wht-blank.png</href>
			</Icon>
			<hotSpot x="32" y="1" xunits="pixels" yunits="pixels"/>
		</IconStyle>
		<ListStyle>
			<ItemIcon>
				<href>http://maps.google.com/mapfiles/kml/paddle/wht-blank-lv.png</href>
			</ItemIcon>
		</ListStyle>
	</Style>
	<Style id="sn_wht-blank300">
		<IconStyle>
			<color>ffff00aa</color>
			<scale>1.1</scale>
			<Icon>
				<href>http://maps.google.com/mapfiles/kml/paddle/wht-blank.png</href>
			</Icon>
			<hotSpot x="32" y="1" xunits="pixels" yunits="pixels"/>
		</IconStyle>
		<ListStyle>
			<ItemIcon>
				<href>http://maps.google.com/mapfiles/kml/paddle/wht-blank-lv.png</href>
			</ItemIcon>
		</ListStyle>
	</Style>
	<Folder>
		<name>November EddyFlux Biomass</name>
		<open>1</open>
		<Placemark>
			<LookAt>
				<longitude>-73.80934040075927</longitude>
				<latitude>42.11596448155816</latitude>
				<altitude>0</altitude>
				<heading>0.0007824048527968554</heading>
				<tilt>30.00086486439951</tilt>
				<range>192.384116645076</range>
				<gx:altitudeMode>relativeToSeaFloor</gx:altitudeMode>
			</LookAt>
			<styleUrl>#msn_wht-blank21</styleUrl>
			<Point>
				<gx:drawOrder>1</gx:drawOrder>
				<coordinates>-73.8088419964263,42.11539276991685,0</coordinates>
			</Point>
		</Placemark>
		<Placemark>
			<LookAt>
				<longitude>-73.80934040075927</longitude>
				<latitude>42.11596448155816</latitude>
				<altitude>0</altitude>
				<heading>0.0007824048527968554</heading>
				<tilt>30.00086486439951</tilt>
				<range>192.384116645076</range>
				<gx:altitudeMode>relativeToSeaFloor</gx:altitudeMode>
			</LookAt>
			<styleUrl>#msn_wht-blank21</styleUrl>
			<Point>
				<gx:drawOrder>1</gx:drawOrder>
				<coordinates>-73.80966854906085,42.11649280347083,0</coordinates>
			</Point>
		</Placemark>
		<Placemark>
			<LookAt>
				<longitude>-73.80934040075927</longitude>
				<latitude>42.11596448155816</latitude>
				<altitude>0</altitude>
				<heading>0.0007824048527968554</heading>
				<tilt>30.00086486439951</tilt>
				<range>192.384116645076</range>
				<gx:altitudeMode>relativeToSeaFloor</gx:altitudeMode>
			</LookAt>
			<styleUrl>#msn_wht-blank21</styleUrl>
			<Point>
				<gx:drawOrder>1</gx:drawOrder>
				<coordinates>-73.80797175783653,42.11647650216895,0</coordinates>
			</Point>
		</Placemark>
		<Placemark>
			<name>Nov19</name>
			<LookAt>
				<longitude>-73.77008220741878</longitude>
				<latitude>42.16587567940462</latitude>
				<altitude>0</altitude>
				<heading>0.03185221795112674</heading>
				<tilt>16.36943788998329</tilt>
				<range>382.2091770038126</range>
				<gx:altitudeMode>relativeToSeaFloor</gx:altitudeMode>
			</LookAt>
			<styleUrl>#m_ylw-pushpin</styleUrl>
			<Point>
				<gx:drawOrder>1</gx:drawOrder>
				<coordinates>-73.7714992763287,42.16539445884769,0</coordinates>
			</Point>
		</Placemark>
		<Placemark>
			<name>Nov19</name>
			<LookAt>
				<longitude>-73.77008220741878</longitude>
				<latitude>42.16587567940462</latitude>
				<altitude>0</altitude>
				<heading>0.03185221795112674</heading>
				<tilt>16.36943788998329</tilt>
				<range>382.2091770038126</range>
				<gx:altitudeMode>relativeToSeaFloor</gx:altitudeMode>
			</LookAt>
			<styleUrl>#msn_wht-blank25</styleUrl>
			<Point>
				<gx:drawOrder>1</gx:drawOrder>
				<coordinates>-73.77063246787023,42.16647647027768,0</coordinates>
			</Point>
		</Placemark>
		<Placemark>
			<name>Nov19</name>
			<LookAt>
				<longitude>-73.77008220741878</longitude>
				<latitude>42.16587567940462</latitude>
				<altitude>0</altitude>
				<heading>0.03185221795112674</heading>
				<tilt>16.36943788998329</tilt>
				<range>382.2091770038126</range>
				<gx:altitudeMode>relativeToSeaFloor</gx:altitudeMode>
			</LookAt>
			<styleUrl>#msn_wht-blank25</styleUrl>
			<Point>
				<gx:drawOrder>1</gx:drawOrder>
				<coordinates>-73.76980143127662,42.16537707980974,0</coordinates>
			</Point>
		</Placemark>
		<Placemark>
			<name>Nov19</name>
			<LookAt>
				<longitude>-73.72807551611835</longitude>
				<latitude>42.17446081008668</latitude>
				<altitude>0</altitude>
				<heading>26.94245950201019</heading>
				<tilt>24.43892099213715</tilt>
				<range>320.8182382143172</range>
				<gx:altitudeMode>relativeToSeaFloor</gx:altitudeMode>
			</LookAt>
			<styleUrl>#m_ylw-pushpin</styleUrl>
			<Point>
				<gx:drawOrder>1</gx:drawOrder>
				<coordinates>-73.72771440052742,42.17469838275513,0</coordinates>
			</Point>
		</Placemark>
		<Placemark>
			<name>Nov19</name>
			<LookAt>
				<longitude>-73.72807551611835</longitude>
				<latitude>42.17446081008668</latitude>
				<altitude>0</altitude>
				<heading>26.94245950201019</heading>
				<tilt>24.43892099213715</tilt>
				<range>320.8182382143172</range>
				<gx:altitudeMode>relativeToSeaFloor</gx:altitudeMode>
			</LookAt>
			<styleUrl>#m_ylw-pushpin</styleUrl>
			<Point>
				<gx:drawOrder>1</gx:drawOrder>
				<coordinates>-73.72854374262771,42.17579246117074,0</coordinates>
			</Point>
		</Placemark>
		<Placemark>
			<name>Nov19</name>
			<LookAt>
				<longitude>-73.72807551611835</longitude>
				<latitude>42.17446081008668</latitude>
				<altitude>0</altitude>
				<heading>26.94245950201019</heading>
				<tilt>24.43892099213715</tilt>
				<range>320.8182382143172</range>
				<gx:altitudeMode>relativeToSeaFloor</gx:altitudeMode>
			</LookAt>
			<styleUrl>#m_ylw-pushpin</styleUrl>
			<Point>
				<gx:drawOrder>1</gx:drawOrder>
				<coordinates>-73.72940908294724,42.1747185626317,0</coordinates>
			</Point>
		</Placemark>
	</Folder>
</Document>
</kml>
